[{"OBJECT_NAME":"UTMN 2 (RS27S)","OBJECT_ID":"2023-091AP","EPOCH":"2026-03-09T23:09:07.917408","MEAN_MOTION":15.29495965,"ECCENTRICITY":0.00097379,"INCLINATION":97.5194,"RA_OF_ASC_NODE":134.949,"ARG_OF_PERICENTER":76.0788,"MEAN_ANOMALY":284.1534,"EPHEMERIS_TYPE":0,"CLASSIFICATION_TYPE":"U","NORAD_CAT_ID":57203,"ELEMENT_SET_NO":999,"REV_AT_EPOCH":14936,"BSTAR":0.00056135701,"MEAN_MOTION_DOT":0.00016013,"MEAN_MOTION_DDOT":0},{"OBJECT_NAME":"STARLINK-32425","OBJECT_ID":"2024-171S","EPOCH":"2026-03-09T22:17:06.652608","MEAN_MOTION":15.30157583,"ECCENTRICITY":8.762e-5,"INCLINATION":53.1597,"RA_OF_ASC_NODE":321.4355,"ARG_OF_PERICENTER":100.0428,"MEAN_ANOMALY":260.0672,"EPHEMERIS_TYPE":0,"CLASSIFICATION_TYPE":"U","NORAD_CAT_ID":61216,"ELEMENT_SET_NO":999,"REV_AT_EPOCH":8240,"BSTAR":0.00021850476,"MEAN_MOTION_DOT":6.11e-5,"MEAN_MOTION_DDOT":0}]
